{
  "type": "FeatureCollection",
  "features": [
    {
      "type": "Feature",
      "properties": {
        "norad_id": 40730,
        "name": "GPS BIIF-10 (PRN 08)",
        "group": "gps-ops",
        "lat": -8.163739783528811,
        "lon": 100.27814906273753,
        "alt_km": 20466.500013742665,
        "timestamp": "2025-12-23T11:34:48.423592+00:00",
        "meta_object_name": "GPS BIIF-10 (PRN 08)",
        "meta_object_id": "2015-033A",
        "meta_epoch": "2025-12-21T17:23:51.616608",
        "meta_mean_motion": 2.00565211,
        "meta_eccentricity": 0.01114778,
        "meta_inclination": 54.1229,
        "meta_ra_of_asc_node": 274.4032,
        "meta_arg_of_pericenter": 27.0282,
        "meta_mean_anomaly": 333.5929,
        "meta_ephemeris_type": 0,
        "meta_classification_type": "U",
        "meta_norad_cat_id": 40730,
        "meta_element_set_no": 999,
        "meta_rev_at_epoch": 7643,
        "meta_bstar": 0,
        "meta_mean_motion_dot": -1.3e-07,
        "meta_mean_motion_ddot": 0,
        "tle_line1": "1 40730U 15033A   25355.72490297 -.00000013  00000+0  00000+0 0  9999",
        "tle_line2": "2 40730  54.1229 274.4032 0111477  27.0282 333.5929  2.00565211 76439"
      },
      "geometry": {
        "type": "Point",
        "coordinates": [
          100.27814906273753,
          -8.163739783528811
        ]
      }
    },
    {
      "type": "Feature",
      "properties": {
        "norad_id": 41019,
        "name": "GPS BIIF-11 (PRN 10)",
        "group": "gps-ops",
        "lat": 29.472898968343646,
        "lon": -164.06911644391252,
        "alt_km": 20156.0854963939,
        "timestamp": "2025-12-23T11:34:48.423602+00:00",
        "meta_object_name": "GPS BIIF-11 (PRN 10)",
        "meta_object_id": "2015-062A",
        "meta_epoch": "2025-12-22T06:47:19.515264",
        "meta_mean_motion": 2.00567132,
        "meta_eccentricity": 0.01110491,
        "meta_inclination": 56.8391,
        "meta_ra_of_asc_node": 37.6333,
        "meta_arg_of_pericenter": 230.1993,
        "meta_mean_anomaly": 128.8844,
        "meta_ephemeris_type": 0,
        "meta_classification_type": "U",
        "meta_norad_cat_id": 41019,
        "meta_element_set_no": 999,
        "meta_rev_at_epoch": 7428,
        "meta_bstar": 0,
        "meta_mean_motion_dot": -4.9e-07,
        "meta_mean_motion_ddot": 0,
        "tle_line1": "1 41019U 15062A   25356.28286476 -.00000049  00000+0  00000+0 0  9995",
        "tle_line2": "2 41019  56.8391  37.6333 0111049 230.1993 128.8844  2.00567132 74289"
      },
      "geometry": {
        "type": "Point",
        "coordinates": [
          -164.06911644391252,
          29.472898968343646
        ]
      }
    },
    {
      "type": "Feature",
      "properties": {
        "norad_id": 41328,
        "name": "GPS BIIF-12 (PRN 32)",
        "group": "gps-ops",
        "lat": 55.13344121881288,
        "lon": 177.8705306691458,
        "alt_km": 20404.723223845907,
        "timestamp": "2025-12-23T11:34:48.423612+00:00",
        "meta_object_name": "GPS BIIF-12 (PRN 32)",
        "meta_object_id": "2016-007A",
        "meta_epoch": "2025-12-21T08:50:32.363232",
        "meta_mean_motion": 2.00560305,
        "meta_eccentricity": 0.00925842,
        "meta_inclination": 55.4109,
        "meta_ra_of_asc_node": 96.5146,
        "meta_arg_of_pericenter": 243.788,
        "meta_mean_anomaly": 115.2562,
        "meta_ephemeris_type": 0,
        "meta_classification_type": "U",
        "meta_norad_cat_id": 41328,
        "meta_element_set_no": 999,
        "meta_rev_at_epoch": 7227,
        "meta_bstar": 0,
        "meta_mean_motion_dot": -8e-08,
        "meta_mean_motion_ddot": 0,
        "tle_line1": "1 41328U 16007A   25355.36843013 -.00000008  00000+0  00000+0 0  9997",
        "tle_line2": "2 41328  55.4109  96.5146 0092584 243.7880 115.2562  2.00560305 72276"
      },
      "geometry": {
        "type": "Point",
        "coordinates": [
          177.8705306691458,
          55.13344121881288
        ]
      }
    },
    {
      "type": "Feature",
      "properties": {
        "norad_id": 43873,
        "name": "GPS BIII-1  (PRN 04)",
        "group": "gps-ops",
        "lat": -16.305087025121075,
        "lon": 87.56991150276367,
        "alt_km": 20266.924058551558,
        "timestamp": "2025-12-23T11:34:48.423622+00:00",
        "meta_object_name": "GPS BIII-1  (PRN 04)",
        "meta_object_id": "2018-109A",
        "meta_epoch": "2025-12-21T18:06:33.031872",
        "meta_mean_motion": 2.00553985,
        "meta_eccentricity": 0.00375944,
        "meta_inclination": 55.5715,
        "meta_ra_of_asc_node": 99.1915,
        "meta_arg_of_pericenter": 195.3805,
        "meta_mean_anomaly": 336.8667,
        "meta_ephemeris_type": 0,
        "meta_classification_type": "U",
        "meta_norad_cat_id": 43873,
        "meta_element_set_no": 999,
        "meta_rev_at_epoch": 5151,
        "meta_bstar": 0,
        "meta_mean_motion_dot": -1e-08,
        "meta_mean_motion_ddot": 0,
        "tle_line1": "1 43873U 18109A   25355.75454898 -.00000001  00000+0  00000+0 0  9994",
        "tle_line2": "2 43873  55.5715  99.1915 0037594 195.3805 336.8667  2.00553985 51516"
      },
      "geometry": {
        "type": "Point",
        "coordinates": [
          87.56991150276367,
          -16.305087025121075
        ]
      }
    },
    {
      "type": "Feature",
      "properties": {
        "norad_id": 44506,
        "name": "GPS BIII-2  (PRN 18)",
        "group": "gps-ops",
        "lat": -44.31416474484299,
        "lon": -160.1421648933383,
        "alt_km": 20068.031664333514,
        "timestamp": "2025-12-23T11:34:48.423632+00:00",
        "meta_object_name": "GPS BIII-2  (PRN 18)",
        "meta_object_id": "2019-056A",
        "meta_epoch": "2025-12-22T09:30:36.985824",
        "meta_mean_motion": 2.00566609,
        "meta_eccentricity": 0.00577373,
        "meta_inclination": 55.718,
        "meta_ra_of_asc_node": 338.1699,
        "meta_arg_of_pericenter": 198.5796,
        "meta_mean_anomaly": 334.3723,
        "meta_ephemeris_type": 0,
        "meta_classification_type": "U",
        "meta_norad_cat_id": 44506,
        "meta_element_set_no": 999,
        "meta_rev_at_epoch": 4652,
        "meta_bstar": 0,
        "meta_mean_motion_dot": -6.7e-07,
        "meta_mean_motion_ddot": 0,
        "tle_line1": "1 44506U 19056A   25356.39626141 -.00000067  00000+0  00000+0 0  9995",
        "tle_line2": "2 44506  55.7180 338.1699 0057737 198.5796 334.3723  2.00566609 46526"
      },
      "geometry": {
        "type": "Point",
        "coordinates": [
          -160.1421648933383,
          -44.31416474484299
        ]
      }
    },
    {
      "type": "Feature",
      "properties": {
        "norad_id": 45854,
        "name": "GPS BIII-3  (PRN 23)",
        "group": "gps-ops",
        "lat": -0.7347325160802732,
        "lon": -143.72952041372045,
        "alt_km": 20034.29374312934,
        "timestamp": "2025-12-23T11:34:48.423643+00:00",
        "meta_object_name": "GPS BIII-3  (PRN 23)",
        "meta_object_id": "2020-041A",
        "meta_epoch": "2025-12-22T05:37:47.217792",
        "meta_mean_motion": 2.00561833,
        "meta_eccentricity": 0.00606538,
        "meta_inclination": 56.5532,
        "meta_ra_of_asc_node": 35.8163,
        "meta_arg_of_pericenter": 203.667,
        "meta_mean_anomaly": 156.4419,
        "meta_ephemeris_type": 0,
        "meta_classification_type": "U",
        "meta_norad_cat_id": 45854,
        "meta_element_set_no": 999,
        "meta_rev_at_epoch": 4049,
        "meta_bstar": 0,
        "meta_mean_motion_dot": -5.1e-07,
        "meta_mean_motion_ddot": 0,
        "tle_line1": "1 45854U 20041A   25356.23457428 -.00000051  00000+0  00000+0 0  9994",
        "tle_line2": "2 45854  56.5532  35.8163 0060653 203.6670 156.4419  2.00561833 40499"
      },
      "geometry": {
        "type": "Point",
        "coordinates": [
          -143.72952041372045,
          -0.7347325160802732
        ]
      }
    },
    {
      "type": "Feature",
      "properties": {
        "norad_id": 46826,
        "name": "GPS BIII-4  (PRN 14)",
        "group": "gps-ops",
        "lat": 22.459660545981336,
        "lon": 20.438405581366016,
        "alt_km": 20072.036094600076,
        "timestamp": "2025-12-23T11:34:48.423655+00:00",
        "meta_object_name": "GPS BIII-4  (PRN 14)",
        "meta_object_id": "2020-078A",
        "meta_epoch": "2025-12-16T01:06:13.902336",
        "meta_mean_motion": 2.00566891,
        "meta_eccentricity": 0.0064755,
        "meta_inclination": 54.0145,
        "meta_ra_of_asc_node": 218.2068,
        "meta_arg_of_pericenter": 203.3828,
        "meta_mean_anomaly": 339.3936,
        "meta_ephemeris_type": 0,
        "meta_classification_type": "U",
        "meta_norad_cat_id": 46826,
        "meta_element_set_no": 999,
        "meta_rev_at_epoch": 3783,
        "meta_bstar": 0,
        "meta_mean_motion_dot": 6.7e-07,
        "meta_mean_motion_ddot": 0,
        "tle_line1": "1 46826U 20078A   25350.04599424  .00000067  00000+0  00000+0 0  9996",
        "tle_line2": "2 46826  54.0145 218.2068 0064755 203.3828 339.3936  2.00566891 37831"
      },
      "geometry": {
        "type": "Point",
        "coordinates": [
          20.438405581366016,
          22.459660545981336
        ]
      }
    }
  ]
}